SKYSAT-A                
1 39418U 13066C   22301.78849039  .00001906  00000+0  15557-3 0  9998
2 39418  97.5345   9.6171 0030142 164.1702 196.0471 15.00252090488647
DUBAISAT-2              
1 39419U 13066D   22302.15639899  .00001633  00000+0  15257-3 0  9996
2 39419  97.4346 327.3663 0013323 182.6143 177.5013 14.95377194487179
OPTOS                   
1 39420U 13066E   22302.30867515  .00002037  00000+0  35402-3 0  9996
2 39420  97.8183 213.6622 0133623 292.8450  65.8688 14.63544792476841
STSAT-3                 
1 39422U 13066G   22302.20391578  .00001062  00000+0  11277-3 0  9999
2 39422  97.4751 300.2095 0021926 191.6828 168.3879 14.90843951485765
WNISAT-1                
1 39423U 13066H   22302.18506940  .00000485  00000+0  10369-3 0  9997
2 39423  97.7310 173.6767 0175380  79.9033 282.1895 14.53624719473878
APRIZESAT 8             
1 39425U 13066K   22301.89392530  .00001150  00000+0  14907-3 0  9996
2 39425  97.6450 267.1423 0050414 325.0915  34.6996 14.81818857482990
TRITON-1                
1 39427U 13066M   22302.30436669  .00001587  00000+0  25259-3 0  9993
2 39427  97.8202 232.3389 0110485 196.0253 163.7448 14.69380613478621
DELFI-N3XT              
1 39428U 13066N   22302.26287874  .00003100  00000+0  47633-3 0  9994
2 39428  97.8201 230.9406 0114916 209.2335 150.2410 14.69874544478368
GOMX-1                  
1 39430U 13066Q   22302.13485364  .00001879  00000+0  34034-3 0  9999
2 39430  97.7967 201.6339 0148453 343.8947  15.7560 14.60530274475803
FIRST-MOVE              
1 39439U 13066Z   22301.85597270  .00006778  00000+0  76979-3 0  9993
2 39439  97.6540 270.2506 0060406 322.7830  36.9206 14.85275286481843
CUBEBUG-2 (LO-74)       
1 39440U 13066AA  22301.76233881  .00002734  00000+0  37126-3 0  9999
2 39440  97.7425 253.8452 0079657  59.5492 301.3557 14.77443864479960
NEE-02 KRYSAOR          
1 39441U 13066AB  22301.81571689  .00001743  00000+0  24656-3 0  9990
2 39441  97.7535 250.9977 0081718  73.6011 287.4163 14.76054685479705
FUNCUBE-1 (AO-73)       
1 39444U 13066AE  22301.85077194  .00003904  00000+0  46214-3 0  9994
2 39444  97.6421 269.9033 0054675 315.9995  43.6873 14.84078238481307
UWE-3                   
1 39446U 13066AG  22301.82358654  .00003234  00000+0  41702-3 0  9999
2 39446  97.7036 260.2665 0068612  15.8606 344.4733 14.80049153480180
SWARM B                 
1 39451U 13067A   22301.79339773  .00002517  00000+0  11196-3 0  9990
2 39451  87.7564  21.4248 0002880  98.9580 261.1991 15.21041126481194
SWARM A                 
1 39452U 13067B   22302.22626415  .00005440  00000+0  16691-3 0  9995
2 39452  87.3642 176.7714 0002391  89.5925 270.5601 15.33515099502471
SWARM C                 
1 39453U 13067C   22302.22616034  .00005381  00000+0  16510-3 0  9996
2 39453  87.3491 175.9718 0002395  89.3128 270.8398 15.33513043502435
