[{"OBJECT_NAME":"SKYSAT-A","OBJECT_ID":"2013-066C","EPOCH":"2022-10-28T18:55:25.569696","MEAN_MOTION":15.0025209,"ECCENTRICITY":0.0030142,"INCLINATION":97.5345,"RA_OF_ASC_NODE":9.6171,"ARG_OF_PERICENTER":164.1702,"MEAN_ANOMALY":196.0471,"EPHEMERIS_TYPE":0,"CLASSIFICATION_TYPE":"U","NORAD_CAT_ID":39418,"ELEMENT_SET_NO":999,"REV_AT_EPOCH":48864,"BSTAR":0.00015557,"MEAN_MOTION_DOT":1.906e-5,"MEAN_MOTION_DDOT":0},{"OBJECT_NAME":"DUBAISAT-2","OBJECT_ID":"2013-066D","EPOCH":"2022-10-29T03:45:12.872736","MEAN_MOTION":14.95377194,"ECCENTRICITY":0.0013323,"INCLINATION":97.4346,"RA_OF_ASC_NODE":327.3663,"ARG_OF_PERICENTER":182.6143,"MEAN_ANOMALY":177.5013,"EPHEMERIS_TYPE":0,"CLASSIFICATION_TYPE":"U","NORAD_CAT_ID":39419,"ELEMENT_SET_NO":999,"REV_AT_EPOCH":48717,"BSTAR":0.00015257,"MEAN_MOTION_DOT":1.633e-5,"MEAN_MOTION_DDOT":0},{"OBJECT_NAME":"OPTOS","OBJECT_ID":"2013-066E","EPOCH":"2022-10-29T07:24:29.532960","MEAN_MOTION":14.63544792,"ECCENTRICITY":0.0133623,"INCLINATION":97.8183,"RA_OF_ASC_NODE":213.6622,"ARG_OF_PERICENTER":292.845,"MEAN_ANOMALY":65.8688,"EPHEMERIS_TYPE":0,"CLASSIFICATION_TYPE":"U","NORAD_CAT_ID":39420,"ELEMENT_SET_NO":999,"REV_AT_EPOCH":47684,"BSTAR":0.00035402,"MEAN_MOTION_DOT":2.037e-5,"MEAN_MOTION_DDOT":0},{"OBJECT_NAME":"STSAT-3","OBJECT_ID":"2013-066G","EPOCH":"2022-10-29T04:53:38.323392","MEAN_MOTION":14.90843951,"ECCENTRICITY":0.0021926,"INCLINATION":97.4751,"RA_OF_ASC_NODE":300.2095,"ARG_OF_PERICENTER":191.6828,"MEAN_ANOMALY":168.3879,"EPHEMERIS_TYPE":0,"CLASSIFICATION_TYPE":"U","NORAD_CAT_ID":39422,"ELEMENT_SET_NO":999,"REV_AT_EPOCH":48576,"BSTAR":0.00011277,"MEAN_MOTION_DOT":1.062e-5,"MEAN_MOTION_DDOT":0},{"OBJECT_NAME":"WNISAT-1","OBJECT_ID":"2013-066H","EPOCH":"2022-10-29T04:26:29.996160","MEAN_MOTION":14.53624719,"ECCENTRICITY":0.017538,"INCLINATION":97.731,"RA_OF_ASC_NODE":173.6767,"ARG_OF_PERICENTER":79.9033,"MEAN_ANOMALY":282.1895,"EPHEMERIS_TYPE":0,"CLASSIFICATION_TYPE":"U","NORAD_CAT_ID":39423,"ELEMENT_SET_NO":999,"REV_AT_EPOCH":47387,"BSTAR":0.00010369,"MEAN_MOTION_DOT":4.85e-6,"MEAN_MOTION_DDOT":0},{"OBJECT_NAME":"APRIZESAT 8","OBJECT_ID":"2013-066K","EPOCH":"2022-10-28T21:27:15.145920","MEAN_MOTION":14.81818857,"ECCENTRICITY":0.0050414,"INCLINATION":97.645,"RA_OF_ASC_NODE":267.1423,"ARG_OF_PERICENTER":325.0915,"MEAN_ANOMALY":34.6996,"EPHEMERIS_TYPE":0,"CLASSIFICATION_TYPE":"U","NORAD_CAT_ID":39425,"ELEMENT_SET_NO":999,"REV_AT_EPOCH":48299,"BSTAR":0.00014907,"MEAN_MOTION_DOT":1.15e-5,"MEAN_MOTION_DDOT":0},{"OBJECT_NAME":"TRITON-1","OBJECT_ID":"2013-066M","EPOCH":"2022-10-29T07:18:17.282016","MEAN_MOTION":14.69380613,"ECCENTRICITY":0.0110485,"INCLINATION":97.8202,"RA_OF_ASC_NODE":232.3389,"ARG_OF_PERICENTER":196.0253,"MEAN_ANOMALY":163.7448,"EPHEMERIS_TYPE":0,"CLASSIFICATION_TYPE":"U","NORAD_CAT_ID":39427,"ELEMENT_SET_NO":999,"REV_AT_EPOCH":47862,"BSTAR":0.00025259,"MEAN_MOTION_DOT":1.587e-5,"MEAN_MOTION_DDOT":0},{"OBJECT_NAME":"DELFI-N3XT","OBJECT_ID":"2013-066N","EPOCH":"2022-10-29T06:18:32.723136","MEAN_MOTION":14.69874544,"ECCENTRICITY":0.0114916,"INCLINATION":97.8201,"RA_OF_ASC_NODE":230.9406,"ARG_OF_PERICENTER":209.2335,"MEAN_ANOMALY":150.241,"EPHEMERIS_TYPE":0,"CLASSIFICATION_TYPE":"U","NORAD_CAT_ID":39428,"ELEMENT_SET_NO":999,"REV_AT_EPOCH":47836,"BSTAR":0.00047633,"MEAN_MOTION_DOT":3.1e-5,"MEAN_MOTION_DDOT":0},{"OBJECT_NAME":"GOMX-1","OBJECT_ID":"2013-066Q","EPOCH":"2022-10-29T03:14:11.354496","MEAN_MOTION":14.60530274,"ECCENTRICITY":0.0148453,"INCLINATION":97.7967,"RA_OF_ASC_NODE":201.6339,"ARG_OF_PERICENTER":343.8947,"MEAN_ANOMALY":15.756,"EPHEMERIS_TYPE":0,"CLASSIFICATION_TYPE":"U","NORAD_CAT_ID":39430,"ELEMENT_SET_NO":999,"REV_AT_EPOCH":47580,"BSTAR":0.00034034,"MEAN_MOTION_DOT":1.879e-5,"MEAN_MOTION_DDOT":0},{"OBJECT_NAME":"FIRST-MOVE","OBJECT_ID":"2013-066Z","EPOCH":"2022-10-28T20:32:36.041280","MEAN_MOTION":14.85275286,"ECCENTRICITY":0.0060406,"INCLINATION":97.654,"RA_OF_ASC_NODE":270.2506,"ARG_OF_PERICENTER":322.783,"MEAN_ANOMALY":36.9206,"EPHEMERIS_TYPE":0,"CLASSIFICATION_TYPE":"U","NORAD_CAT_ID":39439,"ELEMENT_SET_NO":999,"REV_AT_EPOCH":48184,"BSTAR":0.00076979,"MEAN_MOTION_DOT":6.778e-5,"MEAN_MOTION_DDOT":0},{"OBJECT_NAME":"CUBEBUG-2 (LO-74)","OBJECT_ID":"2013-066AA","EPOCH":"2022-10-28T18:17:46.073184","MEAN_MOTION":14.77443864,"ECCENTRICITY":0.0079657,"INCLINATION":97.7425,"RA_OF_ASC_NODE":253.8452,"ARG_OF_PERICENTER":59.5492,"MEAN_ANOMALY":301.3557,"EPHEMERIS_TYPE":0,"CLASSIFICATION_TYPE":"U","NORAD_CAT_ID":39440,"ELEMENT_SET_NO":999,"REV_AT_EPOCH":47996,"BSTAR":0.00037126,"MEAN_MOTION_DOT":2.734e-5,"MEAN_MOTION_DDOT":0},{"OBJECT_NAME":"NEE-02 KRYSAOR","OBJECT_ID":"2013-066AB","EPOCH":"2022-10-28T19:34:37.939296","MEAN_MOTION":14.76054685,"ECCENTRICITY":0.0081718,"INCLINATION":97.7535,"RA_OF_ASC_NODE":250.9977,"ARG_OF_PERICENTER":73.6011,"MEAN_ANOMALY":287.4163,"EPHEMERIS_TYPE":0,"CLASSIFICATION_TYPE":"U","NORAD_CAT_ID":39441,"ELEMENT_SET_NO":999,"REV_AT_EPOCH":47970,"BSTAR":0.00024656,"MEAN_MOTION_DOT":1.743e-5,"MEAN_MOTION_DDOT":0},{"OBJECT_NAME":"FUNCUBE-1 (AO-73)","OBJECT_ID":"2013-066AE","EPOCH":"2022-10-28T20:25:06.695616","MEAN_MOTION":14.84078238,"ECCENTRICITY":0.0054675,"INCLINATION":97.6421,"RA_OF_ASC_NODE":269.9033,"ARG_OF_PERICENTER":315.9995,"MEAN_ANOMALY":43.6873,"EPHEMERIS_TYPE":0,"CLASSIFICATION_TYPE":"U","NORAD_CAT_ID":39444,"ELEMENT_SET_NO":999,"REV_AT_EPOCH":48130,"BSTAR":0.00046214,"MEAN_MOTION_DOT":3.904e-5,"MEAN_MOTION_DDOT":0},{"OBJECT_NAME":"UWE-3","OBJECT_ID":"2013-066AG","EPOCH":"2022-10-28T19:45:57.877056","MEAN_MOTION":14.80049153,"ECCENTRICITY":0.0068612,"INCLINATION":97.7036,"RA_OF_ASC_NODE":260.2665,"ARG_OF_PERICENTER":15.8606,"MEAN_ANOMALY":344.4733,"EPHEMERIS_TYPE":0,"CLASSIFICATION_TYPE":"U","NORAD_CAT_ID":39446,"ELEMENT_SET_NO":999,"REV_AT_EPOCH":48018,"BSTAR":0.00041702,"MEAN_MOTION_DOT":3.234e-5,"MEAN_MOTION_DDOT":0},{"OBJECT_NAME":"SWARM B","OBJECT_ID":"2013-067A","EPOCH":"2022-10-28T19:02:29.563872","MEAN_MOTION":15.21041126,"ECCENTRICITY":0.000288,"INCLINATION":87.7564,"RA_OF_ASC_NODE":21.4248,"ARG_OF_PERICENTER":98.958,"MEAN_ANOMALY":261.1991,"EPHEMERIS_TYPE":0,"CLASSIFICATION_TYPE":"U","NORAD_CAT_ID":39451,"ELEMENT_SET_NO":999,"REV_AT_EPOCH":48119,"BSTAR":0.00011196,"MEAN_MOTION_DOT":2.517e-5,"MEAN_MOTION_DDOT":0},{"OBJECT_NAME":"SWARM A","OBJECT_ID":"2013-067B","EPOCH":"2022-10-29T05:25:49.222560","MEAN_MOTION":15.33515099,"ECCENTRICITY":0.0002391,"INCLINATION":87.3642,"RA_OF_ASC_NODE":176.7714,"ARG_OF_PERICENTER":89.5925,"MEAN_ANOMALY":270.5601,"EPHEMERIS_TYPE":0,"CLASSIFICATION_TYPE":"U","NORAD_CAT_ID":39452,"ELEMENT_SET_NO":999,"REV_AT_EPOCH":50247,"BSTAR":0.00016691,"MEAN_MOTION_DOT":5.44e-5,"MEAN_MOTION_DDOT":0},{"OBJECT_NAME":"SWARM C","OBJECT_ID":"2013-067C","EPOCH":"2022-10-29T05:25:40.253376","MEAN_MOTION":15.33513043,"ECCENTRICITY":0.0002395,"INCLINATION":87.3491,"RA_OF_ASC_NODE":175.9718,"ARG_OF_PERICENTER":89.3128,"MEAN_ANOMALY":270.8398,"EPHEMERIS_TYPE":0,"CLASSIFICATION_TYPE":"U","NORAD_CAT_ID":39453,"ELEMENT_SET_NO":999,"REV_AT_EPOCH":50243,"BSTAR":0.0001651,"MEAN_MOTION_DOT":5.381e-5,"MEAN_MOTION_DDOT":0}]
